FLOCK 4G-6              
1 62660U 25009BD  26068.71061311  .00012261  00000+0  45910-3 0  9991
2 62660  97.3980 150.7943 0002380 348.2637  11.8546 15.27432125121307
STARLINK-33664          
1 63415U 25065S   26068.45136288  .00030196  00000+0  11017-2 0  9996
2 63415  42.9974 108.3630 0001023 280.1190  79.9546 15.27599527 52801
